TECHSAT 1B (GO-32)      
1 25397U 98043D   26167.22147388  .00000030  00000+0  33141-4 0  9995
2 25397  99.0067 159.9557 0001002 165.2007 194.9200 14.24428194451198
TERRA                   
1 25994U 99068A   26167.13049375  .00000315  00000+0  73126-4 0  9996
2 25994  97.9457 216.7186 0001501 193.3628 244.8059 14.61102329409455
TERRASAR-X              
1 31698U 07026A   26166.54501914  .00000298  00000+0  17394-4 0  9998
2 31698  97.4452 174.2739 0001604  89.1769 270.9649 15.19148908 52970
THEOS                   
1 33396U 08049A   26167.19384672  .00000036  00000+0  36739-4 0  9997
2 33396  98.5575 224.5095 0001209  80.3127 279.8186 14.20133388917826
TANDEM-X                
1 36605U 10030A   26166.54501978  .00000388  00000+0  21672-4 0  9994
2 36605  97.4452 174.2763 0001884  86.9240 273.2210 15.19149123886390
SUOMI NPP               
1 37849U 11061A   26167.14228028  .00000057  00000+0  48142-4 0  9993
2 37849  98.7953 108.0255 0001593   9.3782 350.7423 14.19517153758294
SWOT                    
1 54754U 22173A   26167.13080208  .00000034  00000+0  24536-4 0  9994
2 54754  77.6107  36.7363 0000233  87.4655 272.6523 14.00169573179006
TIANMU-1 03             
1 55973U 23039A   26167.20943921  .00012874  00000+0  25444-3 0  9991
2 55973  97.5226 341.1402 0004231 101.5396 258.6329 15.47260625180688
STRIX-6                 
1 68291U 26056A   26166.79515191  .00002936  00000+0  25278-3 0  9990
2 68291  50.2840 356.3766 0016357 238.4864 121.4487 15.00159494 13065
STRIX-7                 
1 69177U 26112A   26167.17435186  .00001863  00000+0  15913-3 0  9998
2 69177  44.9055 197.7691 0023238  41.2929 318.9694 15.01432269  3729
